IRIDIUM 106             
1 41917U 17003A   25105.90284869  .00000068  00000+0  17092-4 0  9998
2 41917  86.3919 267.0402 0001876 105.8473 254.2930 14.34217930431963
IRIDIUM 103             
1 41918U 17003B   25105.95993049  .00000250  00000+0  82250-4 0  9992
2 41918  86.3921 266.9172 0001679  79.1137 281.0247 14.34217938431990
IRIDIUM 109             
1 41919U 17003C   25105.89650640  .00000200  00000+0  64474-4 0  9996
2 41919  86.3922 266.9963 0002170  87.0087 273.1357 14.34218955431959
IRIDIUM 102             
1 41920U 17003D   25105.86479382  .00000002  00000+0 -62694-5 0  9991
2 41920  86.3922 266.9425 0002117  94.5622 265.5815 14.34217475432033
IRIDIUM 105             
1 41921U 17003E   25105.83551054  .00000654  00000+0  22631-3 0  9993
2 41921  86.3982 235.3838 0001968  89.9047 270.2374 14.34216233433888
IRIDIUM 104             
1 41922U 17003F   25105.94724566  .00000098  00000+0  28098-4 0  9992
2 41922  86.3919 266.9443 0002145  77.5184 282.6251 14.34218193432038
IRIDIUM 114             
1 41923U 17003G   25105.95358956  .00000387  00000+0  13125-3 0  9995
2 41923  86.3920 266.9259 0001912  89.9296 270.2119 14.34218766432018
IRIDIUM 108             
1 41924U 17003H   25105.91211228  .00000577  00000+0  19887-3 0  9994
2 41924  86.3976 235.2575 0002117 100.7643 259.3792 14.34216329433868
